GLOBALSTAR M023 [+]     
1 25621U 99004A   24101.23829640 -.00000104  00000+0 -23228-5 0  9998
2 25621  52.0104 291.7296 0009560 248.4521 283.5331 12.62449848161047
GLOBALSTAR M040 [-]     
1 25622U 99004B   24101.56577796 -.00000082  00000+0  11991-3 0  9993
2 25622  51.9916 294.2511 0001231 126.7268 248.9086 12.61970651160937
GLOBALSTAR M036 [-]     
1 25623U 99004C   24101.55823788 -.00000045  00000+0  54931-3 0  9998
2 25623  51.9969 300.6026 0010693 303.5982  90.8043 11.86566797127623
GLOBALSTAR M038 [-]     
1 25624U 99004D   24101.35312214 -.00000067  00000+0  22751-3 0  9993
2 25624  51.9962 238.0506 0001647 207.4619 169.7284 12.32496529149008
GLOBALSTAR M022 [-]     
1 25649U 99012A   24101.52838502 -.00000070  00000+0  20114-3 0  9996
2 25649  52.0073  27.0430 0002967  36.2435 134.8853 12.02479634124320
GLOBALSTAR M041 [-]     
1 25650U 99012B   24101.46077798 -.00000048  00000+0  48747-3 0  9990
2 25650  52.0008 255.4869 0002620 162.2644 197.8284 11.96659513126474
GLOBALSTAR M046 [-]     
1 25651U 99012C   24101.46116192  .00000076  00000+0  18118-2 0  9991
2 25651  52.0086 353.1578 0002856 100.8551  70.2827 12.09388308131301
GLOBALSTAR M037 [+]     
1 25652U 99012D   24101.59427846 -.00000075  00000+0  15929-3 0  9995
2 25652  52.0015  61.4244 0001804 320.5903 212.9135 12.62401120156634
